{"type": "FeatureCollection", "features": [ {"type": "Feature", "properties": {"norad_id": 34077, "name": "IRIDIUM 33 DEB", "group": "iridium-33-debris", "lat": -57.73811320482433, "lon": -126.59509500047503, "alt_km": 688.9954880629139, "timestamp": "2025-12-21T11:31:43.243784+00:00", "meta": {"OBJECT_NAME": "IRIDIUM 33 DEB", "OBJECT_ID": "1997-051CL", "EPOCH": "2025-12-21T03:59:30.922368", "MEAN_MOTION": 14.64919607, "ECCENTRICITY": 0.0009233, "INCLINATION": 86.385, "RA_OF_ASC_NODE": 47.7954, "ARG_OF_PERICENTER": 12.3417, "MEAN_ANOMALY": 10.5487, "EPHEMERIS_TYPE": 0, "CLASSIFICATION_TYPE": "U", "NORAD_CAT_ID": 34077, "ELEMENT_SET_NO": 999, "REV_AT_EPOCH": 88456, "BSTAR": 0.00074353, "MEAN_MOTION_DOT": 3.999e-05, "MEAN_MOTION_DDOT": 0}, "tle": {"line1": "1 34077U 97051CL  25355.16633012  .00003999  00000+0  74353-3 0  9999", "line2": "2 34077  86.3850  47.7954 0009233  12.3417  10.5487 14.64919607884567"}}, "geometry": {"type": "Point", "coordinates": [-126.59509500047503, -57.73811320482433]}}, {"type": "Feature", "properties": {"norad_id": 34079, "name": "IRIDIUM 33 DEB", "group": "iridium-33-debris", "lat": 80.30783738289102, "lon": 162.90972853227947, "alt_km": 611.9912556718336, "timestamp": "2025-12-21T11:31:43.243795+00:00", "meta": {"OBJECT_NAME": "IRIDIUM 33 DEB", "OBJECT_ID": "1997-051CN", "EPOCH": "2025-12-21T01:41:36.962016", "MEAN_MOTION": 14.83721839, "ECCENTRICITY": 0.0004623, "INCLINATION": 86.3769, "RA_OF_ASC_NODE": 4.8728, "ARG_OF_PERICENTER": 338.2576, "MEAN_ANOMALY": 93.2385, "EPHEMERIS_TYPE": 0, "CLASSIFICATION_TYPE": "U", "NORAD_CAT_ID": 34079, "ELEMENT_SET_NO": 999, "REV_AT_EPOCH": 89101, "BSTAR": 0.0010936, "MEAN_MOTION_DOT": 9.07e-05, "MEAN_MOTION_DDOT": 0}, "tle": {"line1": "1 34079U 97051CN  25355.07056669  .00009070  00000+0  10936-2 0  9990", "line2": "2 34079  86.3769   4.8728 0004623 338.2576  93.2385 14.83721839891017"}}, "geometry": {"type": "Point", "coordinates": [162.90972853227947, 80.30783738289102]}}, {"type": "Feature", "properties": {"norad_id": 34088, "name": "IRIDIUM 33 DEB", "group": "iridium-33-debris", "lat": 79.10256054936721, "lon": 45.88319591955311, "alt_km": 583.6253234381211, "timestamp": "2025-12-21T11:31:43.243806+00:00", "meta": {"OBJECT_NAME": "IRIDIUM 33 DEB", "OBJECT_ID": "1997-051CX", "EPOCH": "2025-12-21T01:45:27.065952", "MEAN_MOTION": 14.91723187, "ECCENTRICITY": 0.0006627, "INCLINATION": 86.3839, "RA_OF_ASC_NODE": 26.8939, "ARG_OF_PERICENTER": 150.3729, "MEAN_ANOMALY": 264.499, "EPHEMERIS_TYPE": 0, "CLASSIFICATION_TYPE": "U", "NORAD_CAT_ID": 34088, "ELEMENT_SET_NO": 999, "REV_AT_EPOCH": 88866, "BSTAR": 0.0014454, "MEAN_MOTION_DOT": 0.00014591, "MEAN_MOTION_DDOT": 0}, "tle": {"line1": "1 34088U 97051CX  25355.07322993  .00014591  00000+0  14454-2 0  9999", "line2": "2 34088  86.3839  26.8939 0006627 150.3729 264.4990 14.91723187888660"}}, "geometry": {"type": "Point", "coordinates": [45.88319591955311, 79.10256054936721]}}, {"type": "Feature", "properties": {"norad_id": 34091, "name": "IRIDIUM 33 DEB", "group": "iridium-33-debris", "lat": -30.88944610442457, "lon": 60.63606682337783, "alt_km": 618.6857340594852, "timestamp": "2025-12-21T11:31:43.243817+00:00", "meta": {"OBJECT_NAME": "IRIDIUM 33 DEB", "OBJECT_ID": "1997-051DA", "EPOCH": "2025-12-20T22:42:25.956000", "MEAN_MOTION": 14.82364714, "ECCENTRICITY": 0.0034072, "INCLINATION": 86.3416, "RA_OF_ASC_NODE": 63.0745, "ARG_OF_PERICENTER": 263.6319, "MEAN_ANOMALY": 96.1023, "EPHEMERIS_TYPE": 0, "CLASSIFICATION_TYPE": "U", "NORAD_CAT_ID": 34091, "ELEMENT_SET_NO": 999, "REV_AT_EPOCH": 87988, "BSTAR": 0.0029659, "MEAN_MOTION_DOT": 0.00024051, "MEAN_MOTION_DDOT": 0}, "tle": {"line1": "1 34091U 97051DA  25354.94613375  .00024051  00000+0  29659-2 0  9990", "line2": "2 34091  86.3416  63.0745 0034072 263.6319  96.1023 14.82364714879889"}}, "geometry": {"type": "Point", "coordinates": [60.63606682337783, -30.88944610442457]}}, {"type": "Feature", "properties": {"norad_id": 34097, "name": "IRIDIUM 33 DEB", "group": "iridium-33-debris", "lat": 10.149575900455487, "lon": 176.86788248273777, "alt_km": 833.3183738806747, "timestamp": "2025-12-21T11:31:43.243827+00:00", "meta": {"OBJECT_NAME": "IRIDIUM 33 DEB", "OBJECT_ID": "1997-051DG", "EPOCH": "2025-12-21T00:41:41.456256", "MEAN_MOTION": 14.34837359, "ECCENTRICITY": 0.0081651, "INCLINATION": 86.2, "RA_OF_ASC_NODE": 357.7488, "ARG_OF_PERICENTER": 335.0527, "MEAN_ANOMALY": 24.6731, "EPHEMERIS_TYPE": 0, "CLASSIFICATION_TYPE": "U", "NORAD_CAT_ID": 34097, "ELEMENT_SET_NO": 999, "REV_AT_EPOCH": 87238, "BSTAR": 0.0010064, "MEAN_MOTION_DOT": 2.983e-05, "MEAN_MOTION_DDOT": 0}, "tle": {"line1": "1 34097U 97051DG  25355.02895204  .00002983  00000+0  10064-2 0  9999", "line2": "2 34097  86.2000 357.7488 0081651 335.0527  24.6731 14.34837359872387"}}, "geometry": {"type": "Point", "coordinates": [176.86788248273777, 10.149575900455487]}}, {"type": "Feature", "properties": {"norad_id": 34145, "name": "IRIDIUM 33 DEB", "group": "iridium-33-debris", "lat": -45.426517268032825, "lon": -35.22317477494771, "alt_km": 771.9301058493093, "timestamp": "2025-12-21T11:31:43.243838+00:00", "meta": {"OBJECT_NAME": "IRIDIUM 33 DEB", "OBJECT_ID": "1997-051DY", "EPOCH": "2025-12-20T22:25:09.621696", "MEAN_MOTION": 14.42341127, "ECCENTRICITY": 0.0055711, "INCLINATION": 86.2115, "RA_OF_ASC_NODE": 328.8764, "ARG_OF_PERICENTER": 67.7948, "MEAN_ANOMALY": 292.9149, "EPHEMERIS_TYPE": 0, "CLASSIFICATION_TYPE": "U", "NORAD_CAT_ID": 34145, "ELEMENT_SET_NO": 999, "REV_AT_EPOCH": 87756, "BSTAR": 0.00076759, "MEAN_MOTION_DOT": 2.602e-05, "MEAN_MOTION_DDOT": 0}, "tle": {"line1": "1 34145U 97051DY  25354.93413914  .00002602  00000+0  76759-3 0  9998", "line2": "2 34145  86.2115 328.8764 0055711  67.7948 292.9149 14.42341127877568"}}, "geometry": {"type": "Point", "coordinates": [-35.22317477494771, -45.426517268032825]}}, {"type": "Feature", "properties": {"norad_id": 34146, "name": "IRIDIUM 33 DEB", "group": "iridium-33-debris", "lat": 14.8729047632604, "lon": 164.94964089398215, "alt_km": 712.800088320575, "timestamp": "2025-12-21T11:31:43.243848+00:00", "meta": {"OBJECT_NAME": "IRIDIUM 33 DEB", "OBJECT_ID": "1997-051DZ", "EPOCH": "2025-12-20T10:36:37.304352", "MEAN_MOTION": 14.49095208, "ECCENTRICITY": 0.00262607, "INCLINATION": 86.283, "RA_OF_ASC_NODE": 346.3974, "ARG_OF_PERICENTER": 194.7947, "MEAN_ANOMALY": 317.4256, "EPHEMERIS_TYPE": 0, "CLASSIFICATION_TYPE": "U", "NORAD_CAT_ID": 34146, "ELEMENT_SET_NO": 999, "REV_AT_EPOCH": 88218, "BSTAR": 0.00059944717, "MEAN_MOTION_DOT": 2.307e-05, "MEAN_MOTION_DDOT": 0}, "tle": {"line1": "1 34146U 97051DZ  25354.44209843  .00002307  00000+0  59945-3 0  9999", "line2": "2 34146  86.2830 346.3974 0026260 194.7947 317.4256 14.49095208882187"}}, "geometry": {"type": "Point", "coordinates": [164.94964089398215, 14.8729047632604]}}, {"type": "Feature", "properties": {"norad_id": 34159, "name": "IRIDIUM 33 DEB", "group": "iridium-33-debris", "lat": -85.73139922968133, "lon": -76.70017333565308, "alt_km": 752.5855728762408, "timestamp": "2025-12-21T11:31:43.243859+00:00", "meta": {"OBJECT_NAME": "IRIDIUM 33 DEB", "OBJECT_ID": "1997-051EN", "EPOCH": "2025-12-21T03:36:30.705696", "MEAN_MOTION": 14.38512066, "ECCENTRICITY": 0.0026062, "INCLINATION": 86.3499, "RA_OF_ASC_NODE": 44.6551, "ARG_OF_PERICENTER": 258.1061, "MEAN_ANOMALY": 101.7214, "EPHEMERIS_TYPE": 0, "CLASSIFICATION_TYPE": "U", "NORAD_CAT_ID": 34159, "ELEMENT_SET_NO": 999, "REV_AT_EPOCH": 88080, "BSTAR": 0.00026667, "MEAN_MOTION_DOT": 8.37e-06, "MEAN_MOTION_DDOT": 0}, "tle": {"line1": "1 34159U 97051EN  25355.15035539  .00000837  00000+0  26667-3 0  9992", "line2": "2 34159  86.3499  44.6551 0026062 258.1061 101.7214 14.38512066880803"}}, "geometry": {"type": "Point", "coordinates": [-76.70017333565308, -85.73139922968133]}}, {"type": "Feature", "properties": {"norad_id": 34350, "name": "IRIDIUM 33 DEB", "group": "iridium-33-debris", "lat": 26.57442256985064, "lon": 177.17306544669404, "alt_km": 727.9997192758565, "timestamp": "2025-12-21T11:31:43.243870+00:00", "meta": {"OBJECT_NAME": "IRIDIUM 33 DEB", "OBJECT_ID": "1997-051ES", "EPOCH": "2025-12-21T01:05:51.116064", "MEAN_MOTION": 14.4540434, "ECCENTRICITY": 0.0023383, "INCLINATION": 86.3272, "RA_OF_ASC_NODE": 359.2028, "ARG_OF_PERICENTER": 109.7302, "MEAN_ANOMALY": 303.2035, "EPHEMERIS_TYPE": 0, "CLASSIFICATION_TYPE": "U", "NORAD_CAT_ID": 34350, "ELEMENT_SET_NO": 999, "REV_AT_EPOCH": 88413, "BSTAR": 0.00022993, "MEAN_MOTION_DOT": 8.32e-06, "MEAN_MOTION_DDOT": 0}, "tle": {"line1": "1 34350U 97051ES  25355.04573051  .00000832  00000+0  22993-3 0  9992", "line2": "2 34350  86.3272 359.2028 0023383 109.7302 303.2035 14.45404340884134"}}, "geometry": {"type": "Point", "coordinates": [177.17306544669404, 26.57442256985064]}}, {"type": "Feature", "properties": {"norad_id": 34366, "name": "IRIDIUM 33 DEB", "group": "iridium-33-debris", "lat": 33.81532202499823, "lon": 47.949615755279126, "alt_km": 706.8617190043951, "timestamp": "2025-12-21T11:31:43.243880+00:00", "meta": {"OBJECT_NAME": "IRIDIUM 33 DEB", "OBJECT_ID": "1997-051FJ", "EPOCH": "2025-12-21T03:14:39.196032", "MEAN_MOTION": 14.54116771, "ECCENTRICITY": 0.0022998, "INCLINATION": 86.369, "RA_OF_ASC_NODE": 45.662, "ARG_OF_PERICENTER": 113.5248, "MEAN_ANOMALY": 274.8967, "EPHEMERIS_TYPE": 0, "CLASSIFICATION_TYPE": "U", "NORAD_CAT_ID": 34366, "ELEMENT_SET_NO": 999, "REV_AT_EPOCH": 88304, "BSTAR": 0.00059167, "MEAN_MOTION_DOT": 2.529e-05, "MEAN_MOTION_DDOT": 0}, "tle": {"line1": "1 34366U 97051FJ  25355.13517588  .00002529  00000+0  59167-3 0  9990", "line2": "2 34366  86.3690  45.6620 0022998 113.5248 274.8967 14.54116771883046"}}, "geometry": {"type": "Point", "coordinates": [47.949615755279126, 33.81532202499823]}}]}